DMSP 5D-3 F16 (USA 172) 
1 28054U 03048A   26190.85620369 -.00000041  00000+0  24641-5 0  9998
2 28054  98.9896 214.8339 0008164  84.2457 261.5042 14.14484868172681
METEOSAT-9 (MSG-2)      
1 28912U 05049B   26190.72046928  .00000128  00000+0  00000+0 0  9995
2 28912   9.4096  53.9401 0002053 358.7521 180.0106  1.00269654  7225
DMSP 5D-3 F17 (USA 191) 
1 29522U 06050A   26190.79728354 -.00000020  00000+0  12051-4 0  9999
2 29522  98.7384 196.9051 0010052 358.5243   1.5900 14.14995893 15622
FENGYUN 3A              
1 32958U 08026A   26190.74299394  .00000025  00000+0  32429-4 0  9998
2 32958  98.6887 131.1547 0009815  65.9784 294.2419 14.19575738938606
GOES 14                 
1 35491U 09033A   26190.80811837 -.00000342  00000+0  00000+0 0  9999
2 35491   1.7449  82.7629 0001931  38.1251 226.1824  1.00100949  6811
DMSP 5D-3 F18 (USA 210) 
1 35951U 09057A   26190.84081811  .00000211  00000+0  13252-3 0  9992
2 35951  98.9051 171.5621 0010905 180.5830 179.5332 14.14909272862791
EWS-G2 (GOES 15)        
1 36411U 10008A   26190.79529163  .00000033  00000+0  00000+0 0  9998
2 36411   1.3366  82.5328 0005225  52.2028 142.6761  1.00268011 59861
COMS 1                  
1 36744U 10032A   26189.35480981 -.00000198  00000+0  00000+0 0  9991
2 36744   4.8563  75.1008 0011359  14.7290 313.4314  0.99169315 51294
FENGYUN 3B              
1 37214U 10059A   26190.87143197 -.00000304  00000+0 -13375-3 0  9990
2 37214  98.9611 236.9809 0023048 120.9574 343.1493 14.14844541810636
SUOMI NPP               
1 37849U 11061A   26190.82556368  .00000030  00000+0  35072-4 0  9994
2 37849  98.7956 131.5475 0000578 252.8200 107.2913 14.19521962761650
METEOSAT-10 (MSG-3)     
1 38552U 12035B   26190.78274213  .00000001  00000+0  00000+0 0  9995
2 38552   4.7222  60.9041 0001145  19.1415 129.5271  1.00269916 51089
METOP-B                 
1 38771U 12049A   26190.78509881  .00000052  00000+0  43625-4 0  9996
2 38771  98.6492 241.8321 0001064 289.4373  70.6690 14.21445394716474
INSAT-3D                
1 39216U 13038B   26190.80837838 -.00000328  00000+0  00000+0 0  9991
2 39216   1.9813  82.2565 0000505  75.1712 190.8571  1.00271157 47305
FENGYUN 3C              
1 39260U 13052A   26190.87131056  .00000043  00000+0  43095-4 0  9991
2 39260  98.4993 163.7061 0013904 322.2109  37.8088 14.15760067661772
METEOR-M 2              
1 40069U 14037A   26190.81113938 -.00000204  00000+0 -73851-4 0  9991
2 40069  98.5128 165.7491 0005477 344.1090  15.9915 14.21467602622532
HIMAWARI-8              
1 40267U 14060A   26190.81054506 -.00000264  00000+0  00000+0 0  9998
2 40267   0.0307 288.6677 0000813 199.9206 231.6051  1.00269469 42981
FENGYUN 2G              
1 40367U 14090A   26190.80719515 -.00000292  00000+0  00000+0 0  9990
2 40367   5.6923  72.5471 0004060 150.8370  94.3226  1.00262790 42220
METEOSAT-11 (MSG-4)     
1 40732U 15034A   26190.78456213  .00000071  00000+0  00000+0 0  9999
2 40732   3.2564  70.9695 0002266 351.9064 156.5395  1.00270172  7447
ELEKTRO-L 2             
1 41105U 15074A   26189.42539329 -.00000107  00000+0  00000+0 0  9998
2 41105   6.7437  70.2631 0000693 230.4230 124.3160  1.00273098 38717
SENTINEL-3A             
1 41335U 16011A   26190.79838541  .00000039  00000+0  34352-4 0  9990
2 41335  98.6239 257.8562 0001399  91.8963 268.2377 14.26738793541283
INSAT-3DR               
1 41752U 16054A   26190.76572230 -.00000065  00000+0  00000+0 0  9995
2 41752   0.0554  89.0522 0010561 181.4566   6.8521  1.00272040 36046
HIMAWARI-9              
1 41836U 16064A   26190.81063171  .00000000  00000+0  00000+0 0  9992
2 41836   0.0222  38.2950 0002189 137.7770 184.2635  1.00271151 35431
GOES 16                 
1 41866U 16071A   26190.61939271 -.00000078  00000+0  00000+0 0  9990
2 41866   0.3887  85.5442 0000536  91.0093 229.2970  1.00271434 35323
FENGYUN 4A              
1 41882U 16077A   26190.87850483 -.00000347  00000+0  00000+0 0  9998
2 41882   2.3764  80.0393 0008366 158.4443 129.3714  1.00271335 35155
CYGFM05                 
1 41884U 16078A   26190.16963986  .00020564  00000+0  26866-3 0  9990
2 41884  34.9558 114.9184 0007159 339.6306  20.4132 15.57650420532187
CYGFM04                 
1 41885U 16078B   26190.83649015  .00025381  00000+0  27151-3 0  9999
2 41885  34.9322  77.0141 0004982  25.1233 334.9734 15.62839197532543
CYGFM02                 
1 41886U 16078C   26190.79223398  .00033425  00000+0  31391-3 0  9996
2 41886  34.9401  71.1594 0005778  28.5918 331.5125 15.66068349532713
CYGFM01                 
1 41887U 16078D   26190.21259684  .00021464  00000+0  27290-3 0  9994
2 41887  34.9387 115.5083 0007085 333.7485  26.2879 15.58363321532146
CYGFM08                 
1 41888U 16078E   26190.83663878  .00024282  00000+0  27640-3 0  9997
2 41888  34.9424  90.3285 0007130  13.2576 346.8336 15.61236914532516
CYGFM07                 
1 41890U 16078G   26190.79432189  .00024095  00000+0  27329-3 0  9990
2 41890  34.9442  78.9327 0005455  26.1089 333.9911 15.61343638532538
CYGFM03                 
1 41891U 16078H   26190.76546757  .00023098  00000+0  26220-3 0  9996
2 41891  34.9397  81.0553 0005420  10.0090 350.0742 15.61327759532505
FENGYUN 3D              
1 43010U 17072A   26190.84020517  .00000099  00000+0  68796-4 0  9997
2 43010  99.0140 165.6729 0001787  25.4353 334.6910 14.19744075448200
NOAA 20 (JPSS-1)        
1 43013U 17073A   26190.83888940  .00000010  00000+0  25762-4 0  9991
2 43013  98.7774 130.1006 0001175 129.4717 230.6563 14.19515789447685
GOES 17                 
1 43226U 18022A   26190.62242605 -.00000171  00000+0  00000+0 0  9993
2 43226   0.9913  85.3468 0000596  74.2750 262.5157  1.00271182 30643
SENTINEL-3B             
1 43437U 18039A   26190.14034432  .00000049  00000+0  38281-4 0  9999
2 43437  98.6239 257.3566 0001006 120.1387 239.9893 14.26740920427251
FENGYUN 2H              
1 43491U 18050A   26190.86968471 -.00000118  00000+0  00000+0 0  9991
2 43491   3.0859  78.8148 0002192 128.9002 112.3850  1.00267958 29661
METOP-C                 
1 43689U 18087A   26190.80312984  .00000045  00000+0  40571-4 0  9996
2 43689  98.6632 249.9921 0002226 100.6310 259.5118 14.21518082398042
GEO-KOMPSAT-2A          
1 43823U 18100A   26190.80811837 -.00000331  00000+0  00000+0 0  9990
2 43823   0.0256 133.4226 0002025 327.1108 246.3920  1.00272501 27853
METEOR-M2 2             
1 44387U 19038A   26190.86388771 -.00000001  00000+0  19621-4 0  9997
2 44387  98.9160 178.4847 0001009  14.6215 345.4992 14.24371838364526
ARKTIKA-M 1             
1 47719U 21016A   26188.42887598 -.00000257  00000+0  00000+0 0  9997
2 47719  63.2524  54.6812 7295086 270.0380  14.5466  2.00614486 39194
FENGYUN 3E              
1 49008U 21062A   26190.82156644 -.00000294  00000+0 -11795-3 0  9998
2 49008  98.7504 193.9770 0002495  48.5741 311.5650 14.19905275259797
GOES 18                 
1 51850U 22021A   26190.75562685  .00000109  00000+0  00000+0 0  9996
2 51850   0.0049 166.3359 0000590  21.9556 234.4155  1.00271909  6817
NOAA 21 (JPSS-2)        
1 54234U 22150A   26190.80078845  .00000014  00000+0  27155-4 0  9994
2 54234  98.7061 129.2101 0002701 113.9772 246.1688 14.19540498189757
METEOSAT-12 (MTG-I1)    
1 54743U 22170C   26190.85397883  .00000004  00000+0  00000+0 0  9996
2 54743   0.7193  18.7296 0003857  82.9238 133.3248  1.00266777 13209
TIANMU-1 03             
1 55973U 23039A   26190.80988603  .00011224  00000+0  21701-3 0  9999
2 55973  97.5243   5.6765 0003033  40.1608 319.9866 15.47939272184338
TIANMU-1 04             
1 55974U 23039B   26190.85509181  .00011904  00000+0  22513-3 0  9992
2 55974  97.5176   4.8795 0003555  32.5718 327.5751 15.48559781184358
TIANMU-1 05             
1 55975U 23039C   26190.85640686  .00011390  00000+0  22075-3 0  9991
2 55975  97.5221   5.3318 0003419  60.2078 299.9511 15.47862696184327
TIANMU-1 06             
1 55976U 23039D   26190.85992270  .00011846  00000+0  22483-3 0  9990
2 55976  97.5228   5.9942 0003545  52.9159 307.2415 15.48457713184352
FENGYUN 3G              
1 56232U 23055A   26190.68892366  .00015992  00000+0  25226-3 0  9994
2 56232  49.9916 229.9927 0007175  31.3867 328.7527 15.53622560183502
METEOR-M2 3             
1 57166U 23091A   26190.86343948 -.00000026  00000+0  73192-5 0  9998
2 57166  98.6071 245.3764 0005138 102.2067 257.9687 14.24048606157747
TIANMU-1 07             
1 57399U 23101A   26190.86088230  .00004355  00000+0  15215-3 0  9996
2 57399  97.2585 241.0101 0004040  75.6016 284.5674 15.30075065165115
TIANMU-1 08             
1 57400U 23101B   26190.82746280  .00004401  00000+0  15371-3 0  9996
2 57400  97.2574 240.7448 0005065  60.2901 299.8844 15.30078987165100
TIANMU-1 09             
1 57401U 23101C   26190.81036449  .00004499  00000+0  15688-3 0  9993
2 57401  97.2532 240.1324 0004662  76.7611 283.4149 15.30118327165104
TIANMU-1 10             
1 57402U 23101D   26190.84381576  .00004515  00000+0  15755-3 0  9995
2 57402  97.2612 241.2387 0006028  68.2969 291.8914 15.30091985165108
FENGYUN 3F              
1 57490U 23111A   26190.80494155  .00000001  00000+0  20973-4 0  9992
2 57490  98.6828 260.3913 0001390  78.6705 281.4628 14.19942840152076
ARKTIKA-M 2             
1 58584U 23198A   26189.19640102  .00000204  00000+0  00000+0 0  9996
2 58584  63.2191 152.0158 6908458 267.3598  18.7565  2.00608968 18747
TIANMU-1 11             
1 58645U 23205A   26190.33215440  .00003698  00000+0  14130-3 0  9997
2 58645  97.3447 211.5434 0006799 288.6689  71.3811 15.27225241140908
TIANMU-1 12             
1 58646U 23205B   26190.30390264  .00003994  00000+0  15317-3 0  9990
2 58646  97.3436 211.2649 0005508 261.8572  98.2042 15.27055963140886
TIANMU-1 13             
1 58647U 23205C   26190.33731617  .00003905  00000+0  14988-3 0  9990
2 58647  97.3463 211.5757 0005269 237.6289 122.4441 15.27048280140887
